OBJECT_NAME,OBJECT_ID,EPOCH,MEAN_MOTION,ECCENTRICITY,INCLINATION,RA_OF_ASC_NODE,ARG_OF_PERICENTER,MEAN_ANOMALY,EPHEMERIS_TYPE,CLASSIFICATION_TYPE,NORAD_CAT_ID,ELEMENT_SET_NO,REV_AT_EPOCH,BSTAR,MEAN_MOTION_DOT,MEAN_MOTION_DDOT
ONEWEB-0522,2022-138AD,2026-06-14T15:22:21.601056,13.19724869,.00017136,87.9178,305.4642,97.7258,262.4069,0,U,54140,999,17647,.1457308E-3,.71E-6,0
ONEWEB-0523,2022-138AE,2026-06-14T14:31:20.901792,13.20771348,.00027935,87.9194,274.9548,99.9468,260.1981,0,U,54141,999,17896,.487539E-4,.33E-6,0
ONEWEB-0524,2022-138AF,2026-06-14T14:16:48.496800,13.20771275,.0002553,87.9194,274.9539,117.7677,242.3716,0,U,54142,999,17896,-.19632314E-4,.5E-7,0
ONEWEB-0525,2022-138AG,2026-06-14T15:49:38.605440,13.19725426,.00015323,87.9174,305.4681,105.3084,254.8218,0,U,54143,999,17649,.18823219E-3,.88E-6,0
ONEWEB-0526,2022-138AH,2026-06-14T14:48:14.071392,13.19726288,.00017645,87.9176,305.4770,102.1058,258.0272,0,U,54144,999,17646,.32381988E-4,.26E-6,0
ONEWEB-0529,2022-138AJ,2026-06-14T14:52:46.989984,13.19724630,.00016203,87.9167,305.4857,101.3665,258.7650,0,U,54145,999,17648,-.16145029E-3,-.52E-6,0
ONEWEB-0531,2022-138AK,2026-06-14T13:57:25.606368,13.20772277,.00028218,87.9192,274.9544,105.5590,254.5855,0,U,54146,999,17896,.15223879E-3,.75E-6,0
ONEWEB-0535,2022-138AL,2026-06-14T10:13:01.000992,13.19724986,.00021787,87.9175,305.5085,95.9147,264.2234,0,U,54147,999,17647,.18673479E-4,.2E-6,0
ONEWEB-0536,2022-138AM,2026-06-14T08:10:44.986944,13.20771481,.00029322,87.9181,275.0252,109.5782,250.5669,0,U,54148,999,17892,.94424262E-4,.51E-6,0
ONEWEB-0527,2022-166A,2026-06-14T10:50:13.518240,13.21813211,.00019002,87.9255,244.5415,100.6796,259.4552,0,U,54642,999,17117,.43888655E-2,.1826E-4,0
ONEWEB-0528,2022-166B,2026-06-14T10:51:26.611776,13.21824899,.0001859,87.9255,244.5437,102.9853,257.1489,0,U,54643,999,17118,.21868534E-3,.103E-5,0
ONEWEB-0539,2022-166C,2026-06-14T11:45:58.614336,13.21826870,.00019965,87.9261,244.5078,92.7217,267.4146,0,U,54644,999,17118,.18391698E-3,.89E-6,0
ONEWEB-0540,2022-166D,2026-06-14T06:28:51.029184,13.21826856,.0002047,87.9253,244.5820,95.5110,264.6258,0,U,54645,999,17114,.3829E-4,.29E-6,0
ONEWEB-0542,2022-166E,2026-06-14T13:49:29.988192,13.21828126,.00020419,87.9263,244.4893,90.1630,269.9738,0,U,54646,999,17119,.56571676E-4,.36E-6,0
ONEWEB-0545,2022-166F,2026-06-14T11:09:37.316736,13.21828351,.00022051,87.9254,244.5233,85.6408,274.4977,0,U,54647,999,17114,.25611091E-3,.119E-5,0
ONEWEB-0580,2022-166G,2026-06-14T12:22:17.402880,13.21827994,.00022742,87.9255,244.5131,89.6598,270.4796,0,U,54648,999,17119,.40437515E-4,.3E-6,0
ONEWEB-0582,2022-166H,2026-06-14T11:33:52.041312,13.21826584,.000221,87.9256,244.5126,87.8002,272.3385,0,U,54649,999,17116,.10085997E-3,.55E-6,0
ONEWEB-0583,2022-166J,2026-06-14T06:23:48.039936,13.21827844,.000206,87.9252,244.5787,95.6209,264.5160,0,U,54650,999,17114,.11257E-3,.6E-6,0
ONEWEB-0584,2022-166K,2026-06-14T12:19:52.487616,13.21826089,.0002126,87.9252,244.5149,96.3513,263.7863,0,U,54651,999,17116,.22330235E-3,.105E-5,0
ONEWEB-0585,2022-166L,2026-06-14T05:37:47.574624,13.21826943,.0002002,87.9256,244.5573,103.2895,256.8462,0,U,54652,999,17113,.30911E-3,.141E-5,0
ONEWEB-0586,2022-166M,2026-06-14T11:24:09.260352,13.21824222,.00020179,87.9255,244.5352,93.9484,266.1881,0,U,54653,999,17116,.37579666E-3,.168E-5,0
ONEWEB-0587,2022-166N,2026-06-14T11:38:41.222112,13.21824178,.00020094,87.9266,244.5064,108.8316,251.3036,0,U,54654,999,17132,.29157875E-3,.133E-5,0
ONEWEB-0589,2022-166P,2026-06-14T11:19:18.709248,13.21824590,.00025097,87.9253,244.5217,80.2274,279.9144,0,U,54655,999,17118,.24793489E-3,.115E-5,0
ONEWEB-0590,2022-166Q,2026-06-14T06:28:27.369408,13.21827228,.0002495,87.9262,244.5518,101.5348,258.6066,0,U,54656,999,17114,-.26541E-4,.2E-7,0
ONEWEB-0591,2022-166R,2026-06-14T14:01:37.938432,13.21826626,.00020721,87.9254,244.5039,98.6562,261.4807,0,U,54657,999,17121,-.2507398E-3,-.91E-6,0
ONEWEB-0592,2022-166S,2026-06-14T12:17:27.295872,13.21828243,.00020343,87.9263,244.4963,98.2609,261.8756,0,U,54658,999,17108,.2154146E-3,.102E-5,0
ONEWEB-0593,2022-166T,2026-06-14T10:59:55.480992,13.21825589,.00019332,87.9254,244.5189,94.4830,265.6525,0,U,54659,999,17118,-.95160671E-4,-.26E-6,0
ONEWEB-0594,2022-166U,2026-06-14T11:29:01.450464,13.21822197,.00019168,87.9255,244.5312,102.4344,257.7004,0,U,54660,999,17120,.24263677E-2,.1015E-4,0
ONEWEB-0595,2022-166V,2026-06-14T10:55:05.602944,13.21827577,.00020986,87.9262,244.5163,105.5743,254.5622,0,U,54661,999,17117,.92085333E-4,.51E-6,0
ONEWEB-0596,2022-166W,2026-06-14T13:56:46.756608,13.21827339,.00020554,87.9257,244.5028,101.6751,258.4613,0,U,54662,999,17119,.19037012E-3,.92E-6,0
